IRIDIUM 26              
1 24903U 97043A   25154.60889990  .00000640  00000+0  20870-3 0  9996
2 24903  86.3944 116.3265 0002451  90.2825 269.8653 14.37136756454797
IRIDIUM 22              
1 24907U 97043E   25154.87593013  .00000474  00000+0  15667-3 0  9990
2 24907  86.3949 119.7419 0002370  86.6354 273.5114 14.35950490454858
DUMMY MASS 1            
1 24925U 97048A   25154.48714587  .00000604  00000+0  64321-4 0  9990
2 24925  86.3341 141.6633 0006456 173.7916 186.3390 14.86977087503092
DUMMY MASS 2            
1 24926U 97048B   25154.71623198  .00000587  00000+0  62846-4 0  9994
2 24926  86.3342 143.1616 0006729 187.1037 173.0094 14.86729669503149
IRIDIUM 29              
1 24944U 97051A   25155.25186729  .00000481  00000+0  15754-3 0  9990
2 24944  86.3960 149.3221 0002197  84.9683 275.1764 14.36457876451638
IRIDIUM 33              
1 24946U 97051C   25155.21950924  .00000316  00000+0  10418-3 0  9993
2 24946  86.3875 148.5947 0009870 113.9640 246.2591 14.34885302450893
IRIDIUM 28              
1 24948U 97051E   25155.23390789  .00000395  00000+0  12584-3 0  9997
2 24948  86.3964 146.8539 0002715  95.6590 264.4917 14.37378101452054
IRIDIUM 36              
1 24967U 97056C   25154.57282166  .00000570  00000+0  18358-3 0  9998
2 24967  86.3990 178.7135 0002583  88.4470 271.7023 14.37600972450264
